[{"OBJECT_NAME":"STARLINK-34317","OBJECT_ID":"2025-112S","EPOCH":"2026-03-09T16:43:04.641600","MEAN_MOTION":15.05657663,"ECCENTRICITY":3.544e-5,"INCLINATION":97.6034,"RA_OF_ASC_NODE":121.5954,"ARG_OF_PERICENTER":186.7028,"MEAN_ANOMALY":173.4194,"EPHEMERIS_TYPE":0,"CLASSIFICATION_TYPE":"U","NORAD_CAT_ID":64162,"ELEMENT_SET_NO":999,"REV_AT_EPOCH":4331,"BSTAR":0.00022587386,"MEAN_MOTION_DOT":3.201e-5,"MEAN_MOTION_DDOT":0},{"OBJECT_NAME":"CZ-6A DEB","OBJECT_ID":"2024-140DW","EPOCH":"2026-03-09T12:42:27.831456","MEAN_MOTION":14.74987574,"ECCENTRICITY":0.01550337,"INCLINATION":88.9082,"RA_OF_ASC_NODE":275.4322,"ARG_OF_PERICENTER":135.579,"MEAN_ANOMALY":225.799,"EPHEMERIS_TYPE":0,"CLASSIFICATION_TYPE":"U","NORAD_CAT_ID":60717,"ELEMENT_SET_NO":999,"REV_AT_EPOCH":8391,"BSTAR":0.0030954876,"MEAN_MOTION_DOT":0.00025382,"MEAN_MOTION_DDOT":0}]
